CELESTIS-17 & SHERPA-FX1
1 47486U 21006CB  26068.64311433  .00007207  00000+0  24301-3 0  9993
2 47486  97.2397 112.1052 0006630 178.1385 181.9882 15.30994801284065
STARLINK-35878          
1 67178U 25303R   26068.02339645  .00033645  00000+0  12258-2 0  9996
2 67178  43.0020 314.4400 0002915 246.4167 113.6378 15.27598188 12638
